HORYU-4                 
1 41340U 16012D   20102.15604841  .00000503  00000-0  31254-4 0  9993
2 41340  31.0059  40.3462 0014059 200.9882 159.0177 15.01460371227750
E-ST@R-II               
1 41459U 16025D   20102.50415348  .00002478  00000-0  12736-3 0  9995
2 41459  98.0969 209.0398 0166410  77.3326 284.6457 15.06271702217369
AAUSAT 4                
1 41460U 16025E   20102.34394163  .00002390  00000-0  11958-3 0  9998
2 41460  98.0952 210.9708 0155708  67.4062 294.3545 15.08506962217529
DIWATA-1                
1 41463U 98067HT  20097.47294285  .06230670  12834-4  30325-4 0  9990
2 41463  51.6144 141.1724 0000010 296.9794 187.6526 16.55522519226431
BEESAT-4                
1 41619U 16040W   20101.92508572  .00001515  00000-0  65655-4 0  9997
2 41619  97.3265 163.0382 0012622  62.6471 297.6049 15.23839008199114
CANX-7                  
1 41788U 16059F   20102.27695896  .00006448  00000-0  90426-3 0  9992
2 41788  98.2524 188.4706 0033852 149.8918 210.4257 14.77435908189899
RAVAN                   
1 41849U 16067B   20102.10170551  .00000570  00000-0  52756-4 0  9992
2 41849  97.9250 210.8394 0009783 110.7406 249.4865 14.98494800186531
CELTEE 1                
1 41850U 16067C   20101.83503521  .00000586  00000-0  55948-4 0  9993
2 41850  97.9201 208.4930 0010329 112.1252 248.1066 14.97147747186387
OPTICUBE 04             
1 41851U 16067D   20101.88760261  .00000040  00000-0  87634-5 0  9998
2 41851  97.9189 208.2019 0010047 113.5550 246.6727 14.96899218186374
AEROCUBE 8D             
1 41852U 16067E   20102.23700974  .00000734  00000-0  69207-4 0  9999
2 41852  97.9202 208.3873 0011229 112.7747 247.4662 14.96872494186400
AEROCUBE 8C             
1 41853U 16067F   20101.86588174 -.00000228  00000-0 -14604-4 0  9995
2 41853  97.9204 207.9230 0011285 113.7035 246.5372 14.96840958186349
PROMETHEUS 2-1          
1 41854U 16067G   20101.84952318  .00000987  00000-0  90681-4 0  9998
2 41854  97.9215 208.1928 0012006 113.3926 246.8559 14.97141562186353
PROMETHEUS 2-3          
1 41855U 16067H   20102.25142067  .00000889  00000-0  82153-4 0  9993
2 41855  97.9219 208.6293 0012174 112.4584 247.7928 14.97152519186415
INS-1B                  
1 41954U 17008G   20101.74917743  .00001372  00000-0  58454-4 0  9998
2 41954  97.3605 167.3463 0009354 169.3020 190.8419 15.24614948175051
BGUSAT                  
1 41999U 17008BD  20101.73129867  .00002386  00000-0  92111-4 0  9992
2 41999  97.3705 171.1032 0008140 176.9851 183.1439 15.27224662174615
DIDO-2                  
1 42000U 17008BE  20102.42173355  .00000867  00000-0  38280-4 0  9993
2 42000  97.3612 168.5347 0008218 184.8782 175.2377 15.24370066174555
PEASSS                  
1 42015U 17008BV  20101.92355465  .00001204  00000-0  50405-4 0  9996
2 42015  97.3632 169.5119 0005985 186.4064 173.7099 15.25467470175057
AL-FARABI 1             
1 42016U 17008BW  20101.65325776  .00001530  00000-0  61810-4 0  9993
2 42016  97.3659 170.1818 0005906 185.9614 174.1555 15.26264462175182
NAYIF-1 (EO-88)         
1 42017U 17008BX  20101.76488382  .00001618  00000-0  65125-4 0  9999
2 42017  97.3653 170.3029 0005958 185.5269 174.5905 15.26304844175229
NSIGHT                  
1 42726U 98067MF  20102.41493746  .00369193  75340-4  46274-3 0  9994
2 42726  51.6234 203.6429 0009369 331.7649  28.2855 16.06960118164920
UCLSAT                  
1 42765U 17036A   20101.89835936  .00001248  00000-0  55376-4 0  9991
2 42765  97.3087 157.9314 0009585 262.7543  97.2605 15.23375300156297
LITUANICASAT-2          
1 42768U 17036D   20102.16010747  .00002128  00000-0  91083-4 0  9993
2 42768  97.3133 158.0604 0013075 250.1095 109.8734 15.23815412155596
AALTO-1                 
1 42775U 17036L   20101.72594425  .00000724  00000-0  34918-4 0  9996
2 42775  97.3066 155.7689 0012174 255.6238 104.3647 15.21741887155375
URSA MAIOR              
1 42776U 17036M   20101.72317193  .00000816  00000-0  38779-4 0  9993
2 42776  97.3077 156.0221 0011994 255.3713 104.6194 15.21914007155385
COMPASS 2               
1 42777U 17036N   20102.11128324  .00001721  00000-0  74472-4 0  9990
2 42777  97.3129 158.4536 0010640 251.4454 108.5628 15.23717818155541
DIAMOND RED             
1 42783U 17036U   20102.12567376  .00000991  00000-0  45409-4 0  9998
2 42783  97.3086 157.4887 0010270 264.0765  95.9301 15.22710101155502
PEGASUS                 
1 42784U 17036V   20101.71291777  .00001099  00000-0  49513-4 0  9992
2 42784  97.3091 157.4669 0010138 264.6476  95.3604 15.23071541155469
DIAMOND GREEN           
1 42785U 17036W   20101.86160452  .00001006  00000-0  46082-4 0  9990
2 42785  97.3090 157.2650 0010161 265.9111  94.0965 15.22708407155534
DIAMOND BLUE            
1 42786U 17036X   20101.92654297  .00000991  00000-0  45398-4 0  9994
2 42786  97.3089 157.3241 0010004 265.8740  94.1354 15.22709797155540
NUDTSAT                 
1 42787U 17036Y   20101.89218801  .00001659  00000-0  70682-4 0  9994
2 42787  97.3136 158.8846 0009657 265.8674  94.1473 15.24309634155404
SUCHAI                  
1 42788U 17036Z   20101.89238317  .00001373  00000-0  60226-4 0  9995
2 42788  97.3099 158.1690 0009703 261.9874  98.0262 15.23594609155590
SKCUBE                  
1 42789U 17036AA  20101.73465484  .00001218  00000-0  54000-4 0  9997
2 42789  97.3094 157.8878 0009574 263.0217  96.9932 15.23447491155485
VZLUSAT-1               
1 42790U 17036AB  20101.88069393  .00001737  00000-0  73884-4 0  9991
2 42790  97.3117 158.8700 0009117 259.6646 100.3565 15.24301198155552
ROBUSTA-1B              
1 42792U 17036AD  20101.69674366  .00001233  00000-0  54331-4 0  9991
2 42792  97.3096 158.0814 0009144 263.5501  96.4695 15.23633578155505
CICERO 6                
1 42793U 17036AE  20102.11566907  .00000892  00000-0  40796-4 0  9991
2 42793  97.3073 157.9809 0008464 264.9335  95.0936 15.23029827155618
D-SAT                   
1 42794U 17036AF  20102.07470151 -.00000001  00000-0  55109-5 0  9990
2 42794  97.5015 138.0406 0125056 229.4051 129.6235 14.91246873152651
CORVUS BC2              
1 42846U 17042X   20102.17811608  .00000206  00000-0  25477-4 0  9992
2 42846  97.5323 348.7340 0010592 135.8767 224.3299 14.92082114149375
CORVUS BC1              
1 42847U 17042Y   20101.64190450  .00000253  00000-0  30085-4 0  9992
2 42847  97.5325 348.3786 0010205 136.6213 223.5812 14.92182824149296
MIRATA                  
1 43015U 17073C   20101.70869811  .00000818  00000-0  69452-4 0  9992
2 43015  97.7213  16.4960 0252097 269.6143  87.6182 14.79545214129204
MAKERSAT 0              
1 43016U 17073D   20101.71848007  .00000569  00000-0  50218-4 0  9991
2 43016  97.7247  16.6969 0254760 270.4647  86.7380 14.79141517129197
ASTERIA                 
1 43020U 98067NH  20101.76572901  .00474228  11758-3  63186-3 0  9999
2 43020  51.6449 220.1129 0006548 352.3765   7.7147 16.06013472136838
DELLINGR (RBLE)         
1 43021U 98067NJ  20101.95933486  .00015560  00000-0  13672-3 0  9990
2 43021  51.6356 264.3457 0001655 165.6628 194.4416 15.69007581136269
AEROCUBE 7B (OCSD B)    
1 43042U 17071F   20101.31442852  .00004330  00000-0  10545-3 0  9990
2 43042  51.6389  40.8048 0004744 148.2536 211.8736 15.43127820131858
AEROCUBE 7C (OCSD C)    
1 43043U 17071G   20101.64048810  .00004460  00000-0  10841-3 0  9996
2 43043  51.6389  39.2471 0004895 153.7825 206.3410 15.43106432131876
CHEFSAT                 
1 43044U 17071H   20102.41070047  .00006985  00000-0  14228-3 0  9997
2 43044  51.6395  22.8833 0004636 158.9766 201.1413 15.47427099132166
ASGARDIA 1              
1 43049U 17071N   20102.41340027  .00004180  00000-0  10193-3 0  9992
2 43049  51.6399  34.7237 0002378 162.9384 197.1682 15.43183294131991
ISARA                   
1 43050U 17071P   20101.51207687  .00006610  00000-0  13917-3 0  9995
2 43050  51.6379  29.5291 0002380 156.5097 203.6000 15.46552299131980
PROPCUBE 2 (FAUNA)      
1 43052U 17071R   20102.22434597  .00004575  00000-0  10918-3 0  9994
2 43052  51.6394  34.2298 0002398 158.3762 201.7325 15.43597881131989
CORVUS BC3              
1 43118U 18004H   20101.76803343  .00000770  00000-0  35478-4 0  9993
2 43118  97.4489 172.5791 0008746 293.8614  66.1705 15.23263047124690
MICROMAS-2A             
1 43131U 18004W   20101.74351780  .00001863  00000-0  77429-4 0  9995
2 43131  97.4532 174.0535 0007565 293.0316  67.0123 15.25054219124770
SPACEBEE-4              
1 43139U 18004AE  20101.76686077  .00002732  00000-0  10832-3 0  9995
2 43139  97.4559 175.1005 0006829 293.6947  66.3574 15.26242847124835
SPACEBEE-3              
1 43140U 18004AF  20101.74935359  .00003693  00000-0  14187-3 0  9999
2 43140  97.4570 175.6661 0006477 291.6731  68.3817 15.27060268124862
SPACEBEE-2              
1 43141U 18004AG  20102.46256390  .00003581  00000-0  13652-3 0  9993
2 43141  97.4581 176.5961 0006444 287.2443  72.8091 15.27343198124986
SPACEBEE-1              
1 43142U 18004AH  20101.92120155  .00004186  00000-0  15756-3 0  9992
2 43142  97.4586 176.2768 0006434 289.3920  70.6623 15.27661210124903
CICERO 7                
1 43143U 18004AJ  20101.74696635  .00001728  00000-0  71903-4 0  9990
2 43143  97.4512 174.2519 0005922 306.2622  53.8068 15.25119222124796
GOMX-4B                 
1 43196U 18015E   20102.32363995  .00000476  00000-0  22424-4 0  9998
2 43196  97.4259 231.4188 0018560 345.4884  14.5840 15.24197470121673
GOMX-4A                 
1 43197U 18015F   20102.35554270  .00000765  00000-0  34060-4 0  9990
2 43197  97.4250 231.5188 0018618 346.3470  72.8576 15.24405697121699
1KUNS-PF                
1 43466U 98067NP  20102.44994493  .00116713  00000-0  40154-3 0  9990
2 43466  51.6286 245.5512 0004625 298.2033  61.8504 15.88742760109812
UBAKUSAT                
1 43467U 98067NQ  20102.17426535  .00026990  00000-0  20475-3 0  9999
2 43467  51.6335 267.1869 0000954 164.0921 196.0108 15.72140775109519
